ONEWEB-0346             
1 49212U 21083AC  25346.11009522  .00000093  00000+0  20396-3 0  9996
2 49212  87.9178  12.6253 0001946 114.3365 245.7970 13.18687392205326
ONEWEB-0348             
1 49213U 21083AD  25346.29788420  .00000066  00000+0  12999-3 0  9997
2 49213  87.9193 311.7120 0001348  95.9894 264.1393 13.20770689212144
ONEWEB-0350             
1 49214U 21083AE  25346.10470613  .00000353  00000+0  93293-3 0  9995
2 49214  87.8982 357.4058 0001403  92.9712 267.1578 13.13470622206377
ONEWEB-0351             
1 49215U 21083AF  25346.29142262 -.00000242  00000+0 -62651-3 0  9995
2 49215  87.9203 311.7099 0002113  58.0884 302.0455 13.20771203212103
ONEWEB-0352             
1 49216U 21083AG  25346.31376825  .00000018  00000+0  13286-4 0  9993
2 49216  87.8970 357.3869 0001834  78.1492 281.9843 13.13471654206492
ONEWEB-0354             
1 49217U 21083AH  25346.16530194  .00000136  00000+0  30370-3 0  9991
2 49217  87.9207 311.7339 0001528  84.7402 275.3906 13.20769931212127
ONEWEB-0355             
1 49218U 21083AJ  25346.03797465  .00000321  00000+0  84449-3 0  9996
2 49218  87.8976 357.4549 0001631  86.0439 274.0877 13.13470794206337
ONEWEB-0357             
1 49219U 21083AK  25345.93486698 -.00000131  00000+0 -35344-3 0  9999
2 49219  87.9201 311.7759 0001766  77.8439 282.2892 13.20770089212099
ONEWEB-0332             
1 49279U 21090A   25346.19724400 -.00000039  00000+0 -14054-3 0  9990
2 49279  87.8983 326.9711 0002019  82.4065 277.7294 13.14503626203017
ONEWEB-0347             
1 49280U 21090B   25345.92541148 -.00000141  00000+0 -37858-3 0  9999
2 49280  87.9194 311.7888 0002130  84.6764 275.4612 13.20771479206321
ONEWEB-0349             
1 49281U 21090C   25345.88121115  .00000045  00000+0  79278-4 0  9997
2 49281  87.9194 311.7959 0001792  80.4232 279.7103 13.20769747205100
ONEWEB-0353             
1 49282U 21090D   25346.18930269  .00000040  00000+0  74643-4 0  9996
2 49282  87.8993 326.9582 0002027  83.4566 276.6795 13.14503877203016
ONEWEB-0356             
1 49283U 21090E   25346.18266620  .00000024  00000+0  26587-4 0  9996
2 49283  87.9205 311.7283 0002264 105.0808 255.0576 13.20770346205145
ONEWEB-0358             
1 49284U 21090F   25346.28840973 -.00000052  00000+0 -16050-3 0  9993
2 49284  87.9202 311.7085 0001754  86.9069 273.2265 13.20770581205881
ONEWEB-0359             
1 49285U 21090G   25346.28525284 -.00000153  00000+0 -40703-3 0  9993
2 49285  87.9200 311.7085 0001397  86.9512 273.1781 13.20771061205860
ONEWEB-0360             
1 49286U 21090H   25346.20003684 -.00000111  00000+0 -30443-3 0  9995
2 49286  87.9195 311.7337 0001655  81.3780 278.7541 13.20771787205160
