[{"OBJECT_NAME":"ONEWEB-0346","OBJECT_ID":"2021-083AC","EPOCH":"2025-12-12T02:38:32.227008","MEAN_MOTION":13.18687392,"ECCENTRICITY":0.00019464,"INCLINATION":87.9178,"RA_OF_ASC_NODE":12.6253,"ARG_OF_PERICENTER":114.3365,"MEAN_ANOMALY":245.797,"EPHEMERIS_TYPE":0,"CLASSIFICATION_TYPE":"U","NORAD_CAT_ID":49212,"ELEMENT_SET_NO":999,"REV_AT_EPOCH":20532,"BSTAR":0.00020396445,"MEAN_MOTION_DOT":9.3e-7,"MEAN_MOTION_DDOT":0},{"OBJECT_NAME":"ONEWEB-0348","OBJECT_ID":"2021-083AD","EPOCH":"2025-12-12T07:08:57.194880","MEAN_MOTION":13.20770689,"ECCENTRICITY":0.00013485,"INCLINATION":87.9193,"RA_OF_ASC_NODE":311.712,"ARG_OF_PERICENTER":95.9894,"MEAN_ANOMALY":264.1393,"EPHEMERIS_TYPE":0,"CLASSIFICATION_TYPE":"U","NORAD_CAT_ID":49213,"ELEMENT_SET_NO":999,"REV_AT_EPOCH":21214,"BSTAR":0.00012998729,"MEAN_MOTION_DOT":6.6e-7,"MEAN_MOTION_DDOT":0},{"OBJECT_NAME":"ONEWEB-0350","OBJECT_ID":"2021-083AE","EPOCH":"2025-12-12T02:30:46.609632","MEAN_MOTION":13.13470622,"ECCENTRICITY":0.00014031,"INCLINATION":87.8982,"RA_OF_ASC_NODE":357.4058,"ARG_OF_PERICENTER":92.9712,"MEAN_ANOMALY":267.1578,"EPHEMERIS_TYPE":0,"CLASSIFICATION_TYPE":"U","NORAD_CAT_ID":49214,"ELEMENT_SET_NO":999,"REV_AT_EPOCH":20637,"BSTAR":0.00093292984,"MEAN_MOTION_DOT":3.53e-6,"MEAN_MOTION_DDOT":0},{"OBJECT_NAME":"ONEWEB-0351","OBJECT_ID":"2021-083AF","EPOCH":"2025-12-12T06:59:38.914368","MEAN_MOTION":13.20771203,"ECCENTRICITY":0.00021136,"INCLINATION":87.9203,"RA_OF_ASC_NODE":311.7099,"ARG_OF_PERICENTER":58.0884,"MEAN_ANOMALY":302.0455,"EPHEMERIS_TYPE":0,"CLASSIFICATION_TYPE":"U","NORAD_CAT_ID":49215,"ELEMENT_SET_NO":999,"REV_AT_EPOCH":21210,"BSTAR":-0.00062650919,"MEAN_MOTION_DOT":-2.42e-6,"MEAN_MOTION_DDOT":0},{"OBJECT_NAME":"ONEWEB-0352","OBJECT_ID":"2021-083AG","EPOCH":"2025-12-12T07:31:49.576800","MEAN_MOTION":13.13471654,"ECCENTRICITY":0.00018343,"INCLINATION":87.897,"RA_OF_ASC_NODE":357.3869,"ARG_OF_PERICENTER":78.1492,"MEAN_ANOMALY":281.9843,"EPHEMERIS_TYPE":0,"CLASSIFICATION_TYPE":"U","NORAD_CAT_ID":49216,"ELEMENT_SET_NO":999,"REV_AT_EPOCH":20649,"BSTAR":1.3285984e-5,"MEAN_MOTION_DOT":1.8e-7,"MEAN_MOTION_DDOT":0},{"OBJECT_NAME":"ONEWEB-0354","OBJECT_ID":"2021-083AH","EPOCH":"2025-12-12T03:58:02.087616","MEAN_MOTION":13.20769931,"ECCENTRICITY":0.00015284,"INCLINATION":87.9207,"RA_OF_ASC_NODE":311.7339,"ARG_OF_PERICENTER":84.7402,"MEAN_ANOMALY":275.3906,"EPHEMERIS_TYPE":0,"CLASSIFICATION_TYPE":"U","NORAD_CAT_ID":49217,"ELEMENT_SET_NO":999,"REV_AT_EPOCH":21212,"BSTAR":0.00030369576,"MEAN_MOTION_DOT":1.36e-6,"MEAN_MOTION_DDOT":0},{"OBJECT_NAME":"ONEWEB-0355","OBJECT_ID":"2021-083AJ","EPOCH":"2025-12-12T00:54:41.009760","MEAN_MOTION":13.13470794,"ECCENTRICITY":0.00016311,"INCLINATION":87.8976,"RA_OF_ASC_NODE":357.4549,"ARG_OF_PERICENTER":86.0439,"MEAN_ANOMALY":274.0877,"EPHEMERIS_TYPE":0,"CLASSIFICATION_TYPE":"U","NORAD_CAT_ID":49218,"ELEMENT_SET_NO":999,"REV_AT_EPOCH":20633,"BSTAR":0.00084449353,"MEAN_MOTION_DOT":3.21e-6,"MEAN_MOTION_DDOT":0},{"OBJECT_NAME":"ONEWEB-0357","OBJECT_ID":"2021-083AK","EPOCH":"2025-12-11T22:26:12.507072","MEAN_MOTION":13.20770089,"ECCENTRICITY":0.0001766,"INCLINATION":87.9201,"RA_OF_ASC_NODE":311.7759,"ARG_OF_PERICENTER":77.8439,"MEAN_ANOMALY":282.2892,"EPHEMERIS_TYPE":0,"CLASSIFICATION_TYPE":"U","NORAD_CAT_ID":49219,"ELEMENT_SET_NO":999,"REV_AT_EPOCH":21209,"BSTAR":-0.00035344,"MEAN_MOTION_DOT":-1.31e-6,"MEAN_MOTION_DDOT":0},{"OBJECT_NAME":"ONEWEB-0332","OBJECT_ID":"2021-090A","EPOCH":"2025-12-12T04:44:01.881600","MEAN_MOTION":13.14503626,"ECCENTRICITY":0.0002019,"INCLINATION":87.8983,"RA_OF_ASC_NODE":326.9711,"ARG_OF_PERICENTER":82.4065,"MEAN_ANOMALY":277.7294,"EPHEMERIS_TYPE":0,"CLASSIFICATION_TYPE":"U","NORAD_CAT_ID":49279,"ELEMENT_SET_NO":999,"REV_AT_EPOCH":20301,"BSTAR":-0.00014054433,"MEAN_MOTION_DOT":-3.9e-7,"MEAN_MOTION_DDOT":0},{"OBJECT_NAME":"ONEWEB-0347","OBJECT_ID":"2021-090B","EPOCH":"2025-12-11T22:12:35.551872","MEAN_MOTION":13.20771479,"ECCENTRICITY":0.000213,"INCLINATION":87.9194,"RA_OF_ASC_NODE":311.7888,"ARG_OF_PERICENTER":84.6764,"MEAN_ANOMALY":275.4612,"EPHEMERIS_TYPE":0,"CLASSIFICATION_TYPE":"U","NORAD_CAT_ID":49280,"ELEMENT_SET_NO":999,"REV_AT_EPOCH":20632,"BSTAR":-0.00037858,"MEAN_MOTION_DOT":-1.41e-6,"MEAN_MOTION_DDOT":0},{"OBJECT_NAME":"ONEWEB-0349","OBJECT_ID":"2021-090C","EPOCH":"2025-12-11T21:08:56.643360","MEAN_MOTION":13.20769747,"ECCENTRICITY":0.0001792,"INCLINATION":87.9194,"RA_OF_ASC_NODE":311.7959,"ARG_OF_PERICENTER":80.4232,"MEAN_ANOMALY":279.7103,"EPHEMERIS_TYPE":0,"CLASSIFICATION_TYPE":"U","NORAD_CAT_ID":49281,"ELEMENT_SET_NO":999,"REV_AT_EPOCH":20510,"BSTAR":7.9278e-5,"MEAN_MOTION_DOT":4.5e-7,"MEAN_MOTION_DDOT":0},{"OBJECT_NAME":"ONEWEB-0353","OBJECT_ID":"2021-090D","EPOCH":"2025-12-12T04:32:35.752416","MEAN_MOTION":13.14503877,"ECCENTRICITY":0.00020275,"INCLINATION":87.8993,"RA_OF_ASC_NODE":326.9582,"ARG_OF_PERICENTER":83.4566,"MEAN_ANOMALY":276.6795,"EPHEMERIS_TYPE":0,"CLASSIFICATION_TYPE":"U","NORAD_CAT_ID":49282,"ELEMENT_SET_NO":999,"REV_AT_EPOCH":20301,"BSTAR":7.4642777e-5,"MEAN_MOTION_DOT":4.0e-7,"MEAN_MOTION_DDOT":0},{"OBJECT_NAME":"ONEWEB-0356","OBJECT_ID":"2021-090E","EPOCH":"2025-12-12T04:23:02.359680","MEAN_MOTION":13.20770346,"ECCENTRICITY":0.00022646,"INCLINATION":87.9205,"RA_OF_ASC_NODE":311.7283,"ARG_OF_PERICENTER":105.0808,"MEAN_ANOMALY":255.0576,"EPHEMERIS_TYPE":0,"CLASSIFICATION_TYPE":"U","NORAD_CAT_ID":49283,"ELEMENT_SET_NO":999,"REV_AT_EPOCH":20514,"BSTAR":2.6587042e-5,"MEAN_MOTION_DOT":2.4e-7,"MEAN_MOTION_DDOT":0},{"OBJECT_NAME":"ONEWEB-0358","OBJECT_ID":"2021-090F","EPOCH":"2025-12-12T06:55:18.600672","MEAN_MOTION":13.20770581,"ECCENTRICITY":0.00017543,"INCLINATION":87.9202,"RA_OF_ASC_NODE":311.7085,"ARG_OF_PERICENTER":86.9069,"MEAN_ANOMALY":273.2265,"EPHEMERIS_TYPE":0,"CLASSIFICATION_TYPE":"U","NORAD_CAT_ID":49284,"ELEMENT_SET_NO":999,"REV_AT_EPOCH":20588,"BSTAR":-0.00016050338,"MEAN_MOTION_DOT":-5.2e-7,"MEAN_MOTION_DDOT":0},{"OBJECT_NAME":"ONEWEB-0359","OBJECT_ID":"2021-090G","EPOCH":"2025-12-12T06:50:45.845376","MEAN_MOTION":13.20771061,"ECCENTRICITY":0.00013972,"INCLINATION":87.92,"RA_OF_ASC_NODE":311.7085,"ARG_OF_PERICENTER":86.9512,"MEAN_ANOMALY":273.1781,"EPHEMERIS_TYPE":0,"CLASSIFICATION_TYPE":"U","NORAD_CAT_ID":49285,"ELEMENT_SET_NO":999,"REV_AT_EPOCH":20586,"BSTAR":-0.00040703036,"MEAN_MOTION_DOT":-1.53e-6,"MEAN_MOTION_DDOT":0},{"OBJECT_NAME":"ONEWEB-0360","OBJECT_ID":"2021-090H","EPOCH":"2025-12-12T04:48:03.182976","MEAN_MOTION":13.20771787,"ECCENTRICITY":0.0001655,"INCLINATION":87.9195,"RA_OF_ASC_NODE":311.7337,"ARG_OF_PERICENTER":81.378,"MEAN_ANOMALY":278.7541,"EPHEMERIS_TYPE":0,"CLASSIFICATION_TYPE":"U","NORAD_CAT_ID":49286,"ELEMENT_SET_NO":999,"REV_AT_EPOCH":20516,"BSTAR":-0.00030443019,"MEAN_MOTION_DOT":-1.11e-6,"MEAN_MOTION_DDOT":0}]
